CCSDS_OMM_VERS = 2.0
CREATION_DATE  = 
ORIGINATOR     = 

OBJECT_NAME    = TRANSPORTER-15AB
OBJECT_ID      = 2025-276AB
CENTER_NAME    = EARTH
REF_FRAME      = TEME
TIME_SYSTEM    = UTC
MEAN_ELEMENT_THEORY = SGP/SGP4

EPOCH          = 2025-12-24T05:12:02.069568
MEAN_MOTION    = 15.17324498
ECCENTRICITY   = .00038168
INCLINATION    = 97.4415
RA_OF_ASC_NODE = 69.7745
ARG_OF_PERICENTER = 243.2210
MEAN_ANOMALY   = 116.8633

EPHEMERIS_TYPE = 0
CLASSIFICATION_TYPE = U
NORAD_CAT_ID   = 66691
ELEMENT_SET_NO = 999
REV_AT_EPOCH   = 386
BSTAR          = .66187489E-3
MEAN_MOTION_DOT = .13149E-3
MEAN_MOTION_DDOT = 0

CCSDS_OMM_VERS = 2.0
CREATION_DATE  = 
ORIGINATOR     = 

OBJECT_NAME    = TRANSPORTER-15AC
OBJECT_ID      = 2025-276AC
CENTER_NAME    = EARTH
REF_FRAME      = TEME
TIME_SYSTEM    = UTC
MEAN_ELEMENT_THEORY = SGP/SGP4

EPOCH          = 2025-12-23T03:48:04.245408
MEAN_MOTION    = 15.17403594
ECCENTRICITY   = .00017836
INCLINATION    = 97.4420
RA_OF_ASC_NODE = 68.7460
ARG_OF_PERICENTER = 265.9230
MEAN_ANOMALY   = 94.1800

EPHEMERIS_TYPE = 0
CLASSIFICATION_TYPE = U
NORAD_CAT_ID   = 66692
ELEMENT_SET_NO = 999
REV_AT_EPOCH   = 370
BSTAR          = .37104473E-3
MEAN_MOTION_DOT = .7352E-4
MEAN_MOTION_DDOT = 0

CCSDS_OMM_VERS = 2.0
CREATION_DATE  = 
ORIGINATOR     = 

OBJECT_NAME    = TRANSPORTER-15AD
OBJECT_ID      = 2025-276AD
CENTER_NAME    = EARTH
REF_FRAME      = TEME
TIME_SYSTEM    = UTC
MEAN_ELEMENT_THEORY = SGP/SGP4

EPOCH          = 2025-12-24T03:35:03.617088
MEAN_MOTION    = 15.12110895
ECCENTRICITY   = .00219356
INCLINATION    = 97.4375
RA_OF_ASC_NODE = 69.6952
ARG_OF_PERICENTER = 66.2072
MEAN_ANOMALY   = 294.1455

EPHEMERIS_TYPE = 0
CLASSIFICATION_TYPE = U
NORAD_CAT_ID   = 66693
ELEMENT_SET_NO = 999
REV_AT_EPOCH   = 385
BSTAR          = -.10195187E+0
MEAN_MOTION_DOT = -.160531E-1
MEAN_MOTION_DDOT = 0

CCSDS_OMM_VERS = 2.0
CREATION_DATE  = 
ORIGINATOR     = 

OBJECT_NAME    = YAM-9
OBJECT_ID      = 2025-276AE
CENTER_NAME    = EARTH
REF_FRAME      = TEME
TIME_SYSTEM    = UTC
MEAN_ELEMENT_THEORY = SGP/SGP4

EPOCH          = 2025-12-22T15:05:57.357312
MEAN_MOTION    = 15.17554197
ECCENTRICITY   = .00015162
INCLINATION    = 97.4414
RA_OF_ASC_NODE = 68.2259
ARG_OF_PERICENTER = 262.5734
MEAN_ANOMALY   = 97.5327

EPHEMERIS_TYPE = 0
CLASSIFICATION_TYPE = U
NORAD_CAT_ID   = 66694
ELEMENT_SET_NO = 999
REV_AT_EPOCH   = 362
BSTAR          = .67893264E-3
MEAN_MOTION_DOT = .13577E-3
MEAN_MOTION_DDOT = 0

CCSDS_OMM_VERS = 2.0
CREATION_DATE  = 
ORIGINATOR     = 

OBJECT_NAME    = IRIDE FM1
OBJECT_ID      = 2025-276AF
CENTER_NAME    = EARTH
REF_FRAME      = TEME
TIME_SYSTEM    = UTC
MEAN_ELEMENT_THEORY = SGP/SGP4

EPOCH          = 2025-12-24T01:38:51.674496
MEAN_MOTION    = 15.18285345
ECCENTRICITY   = .00014361
INCLINATION    = 97.4402
RA_OF_ASC_NODE = 69.6602
ARG_OF_PERICENTER = 142.4664
MEAN_ANOMALY   = 217.6671

EPHEMERIS_TYPE = 0
CLASSIFICATION_TYPE = U
NORAD_CAT_ID   = 66695
ELEMENT_SET_NO = 999
REV_AT_EPOCH   = 384
BSTAR          = .54049679E-3
MEAN_MOTION_DOT = .11021E-3
MEAN_MOTION_DDOT = 0

CCSDS_OMM_VERS = 2.0
CREATION_DATE  = 
ORIGINATOR     = 

OBJECT_NAME    = IRIDE FM2
OBJECT_ID      = 2025-276AG
CENTER_NAME    = EARTH
REF_FRAME      = TEME
TIME_SYSTEM    = UTC
MEAN_ELEMENT_THEORY = SGP/SGP4

EPOCH          = 2025-12-24T03:33:29.463552
MEAN_MOTION    = 15.17435502
ECCENTRICITY   = .00025118
INCLINATION    = 97.4387
RA_OF_ASC_NODE = 69.7026
ARG_OF_PERICENTER = 261.1415
MEAN_ANOMALY   = 98.9534

EPHEMERIS_TYPE = 0
CLASSIFICATION_TYPE = U
NORAD_CAT_ID   = 66696
ELEMENT_SET_NO = 999
REV_AT_EPOCH   = 385
BSTAR          = .44570909E-3
MEAN_MOTION_DOT = .8855E-4
MEAN_MOTION_DDOT = 0

CCSDS_OMM_VERS = 2.0
CREATION_DATE  = 
ORIGINATOR     = 

OBJECT_NAME    = IRIDE FM3
OBJECT_ID      = 2025-276AH
CENTER_NAME    = EARTH
REF_FRAME      = TEME
TIME_SYSTEM    = UTC
MEAN_ELEMENT_THEORY = SGP/SGP4

EPOCH          = 2025-12-24T06:25:22.374048
MEAN_MOTION    = 15.18192746
ECCENTRICITY   = .0001337
INCLINATION    = 97.4388
RA_OF_ASC_NODE = 69.8491
ARG_OF_PERICENTER = 149.5304
MEAN_ANOMALY   = 210.6008

EPHEMERIS_TYPE = 0
CLASSIFICATION_TYPE = U
NORAD_CAT_ID   = 66697
ELEMENT_SET_NO = 999
REV_AT_EPOCH   = 387
BSTAR          = .6010467E-3
MEAN_MOTION_DOT = .12233E-3
MEAN_MOTION_DDOT = 0

CCSDS_OMM_VERS = 2.0
CREATION_DATE  = 
ORIGINATOR     = 

OBJECT_NAME    = IRIDE FM4
OBJECT_ID      = 2025-276AJ
CENTER_NAME    = EARTH
REF_FRAME      = TEME
TIME_SYSTEM    = UTC
MEAN_ELEMENT_THEORY = SGP/SGP4

EPOCH          = 2025-12-24T08:00:03.000384
MEAN_MOTION    = 15.17393336
ECCENTRICITY   = .00028168
INCLINATION    = 97.4387
RA_OF_ASC_NODE = 69.8832
ARG_OF_PERICENTER = 252.4343
MEAN_ANOMALY   = 33.0288

EPHEMERIS_TYPE = 0
CLASSIFICATION_TYPE = U
NORAD_CAT_ID   = 66698
ELEMENT_SET_NO = 999
REV_AT_EPOCH   = 130
BSTAR          = -.25918163E-2
MEAN_MOTION_DOT = -.51456E-3
MEAN_MOTION_DDOT = 0

CCSDS_OMM_VERS = 2.0
CREATION_DATE  = 
ORIGINATOR     = 

OBJECT_NAME    = IRIDE FM5
OBJECT_ID      = 2025-276AK
CENTER_NAME    = EARTH
REF_FRAME      = TEME
TIME_SYSTEM    = UTC
MEAN_ELEMENT_THEORY = SGP/SGP4

EPOCH          = 2025-12-24T03:34:29.520192
MEAN_MOTION    = 15.17413849
ECCENTRICITY   = .00030917
INCLINATION    = 97.4401
RA_OF_ASC_NODE = 69.7072
ARG_OF_PERICENTER = 249.7910
MEAN_ANOMALY   = 110.2991

EPHEMERIS_TYPE = 0
CLASSIFICATION_TYPE = U
NORAD_CAT_ID   = 66699
ELEMENT_SET_NO = 999
REV_AT_EPOCH   = 385
BSTAR          = .10823499E-2
MEAN_MOTION_DOT = .21623E-3
MEAN_MOTION_DDOT = 0

CCSDS_OMM_VERS = 2.0
CREATION_DATE  = 
ORIGINATOR     = 

OBJECT_NAME    = IRIDE FM6
OBJECT_ID      = 2025-276AL
CENTER_NAME    = EARTH
REF_FRAME      = TEME
TIME_SYSTEM    = UTC
MEAN_ELEMENT_THEORY = SGP/SGP4

EPOCH          = 2025-12-24T06:24:23.819904
MEAN_MOTION    = 15.18245449
ECCENTRICITY   = .00017516
INCLINATION    = 97.4421
RA_OF_ASC_NODE = 69.8609
ARG_OF_PERICENTER = 156.5685
MEAN_ANOMALY   = 203.5629

EPHEMERIS_TYPE = 0
CLASSIFICATION_TYPE = U
NORAD_CAT_ID   = 66700
ELEMENT_SET_NO = 999
REV_AT_EPOCH   = 387
BSTAR          = .53054317E-3
MEAN_MOTION_DOT = .10804E-3
MEAN_MOTION_DDOT = 0

CCSDS_OMM_VERS = 2.0
CREATION_DATE  = 
ORIGINATOR     = 

OBJECT_NAME    = IRIDE FM7
OBJECT_ID      = 2025-276AM
CENTER_NAME    = EARTH
REF_FRAME      = TEME
TIME_SYSTEM    = UTC
MEAN_ELEMENT_THEORY = SGP/SGP4

EPOCH          = 2025-12-23T22:49:39.683136
MEAN_MOTION    = 15.17413272
ECCENTRICITY   = .0004485
INCLINATION    = 97.4419
RA_OF_ASC_NODE = 69.5173
ARG_OF_PERICENTER = 239.7436
MEAN_ANOMALY   = 120.3354

EPHEMERIS_TYPE = 0
CLASSIFICATION_TYPE = U
NORAD_CAT_ID   = 66701
ELEMENT_SET_NO = 999
REV_AT_EPOCH   = 382
BSTAR          = -.94395E-3
MEAN_MOTION_DOT = -.1888E-3
MEAN_MOTION_DDOT = 0

CCSDS_OMM_VERS = 2.0
CREATION_DATE  = 
ORIGINATOR     = 

OBJECT_NAME    = IRIDE FM8
OBJECT_ID      = 2025-276AN
CENTER_NAME    = EARTH
REF_FRAME      = TEME
TIME_SYSTEM    = UTC
MEAN_ELEMENT_THEORY = SGP/SGP4

EPOCH          = 2025-12-24T03:34:15.707424
MEAN_MOTION    = 15.17412942
ECCENTRICITY   = .00028788
INCLINATION    = 97.4396
RA_OF_ASC_NODE = 69.7053
ARG_OF_PERICENTER = 257.4973
MEAN_ANOMALY   = 102.5939

EPHEMERIS_TYPE = 0
CLASSIFICATION_TYPE = U
NORAD_CAT_ID   = 66702
ELEMENT_SET_NO = 999
REV_AT_EPOCH   = 385
BSTAR          = .54043842E-3
MEAN_MOTION_DOT = .10747E-3
MEAN_MOTION_DDOT = 0

CCSDS_OMM_VERS = 2.0
CREATION_DATE  = 
ORIGINATOR     = 

OBJECT_NAME    = PELICAN-6
OBJECT_ID      = 2025-276AP
CENTER_NAME    = EARTH
REF_FRAME      = TEME
TIME_SYSTEM    = UTC
MEAN_ELEMENT_THEORY = SGP/SGP4

EPOCH          = 2025-12-23T10:07:52.193568
MEAN_MOTION    = 15.17422387
ECCENTRICITY   = .00018059
INCLINATION    = 97.4406
RA_OF_ASC_NODE = 68.9965
ARG_OF_PERICENTER = 230.3066
MEAN_ANOMALY   = 129.8009

EPHEMERIS_TYPE = 0
CLASSIFICATION_TYPE = U
NORAD_CAT_ID   = 66703
ELEMENT_SET_NO = 999
REV_AT_EPOCH   = 374
BSTAR          = .31748632E-2
MEAN_MOTION_DOT = .63935E-3
MEAN_MOTION_DDOT = 0

CCSDS_OMM_VERS = 2.0
CREATION_DATE  = 
ORIGINATOR     = 

OBJECT_NAME    = FLOCK 4H-1
OBJECT_ID      = 2025-276AQ
CENTER_NAME    = EARTH
REF_FRAME      = TEME
TIME_SYSTEM    = UTC
MEAN_ELEMENT_THEORY = SGP/SGP4

EPOCH          = 2025-12-24T06:26:40.027776
MEAN_MOTION    = 15.18107588
ECCENTRICITY   = .0002065
INCLINATION    = 97.4381
RA_OF_ASC_NODE = 69.8432
ARG_OF_PERICENTER = 164.8909
MEAN_ANOMALY   = 195.2387

EPHEMERIS_TYPE = 0
CLASSIFICATION_TYPE = U
NORAD_CAT_ID   = 66704
ELEMENT_SET_NO = 999
REV_AT_EPOCH   = 387
BSTAR          = .56015696E-3
MEAN_MOTION_DOT = .11367E-3
MEAN_MOTION_DDOT = 0

CCSDS_OMM_VERS = 2.0
CREATION_DATE  = 
ORIGINATOR     = 

OBJECT_NAME    = FLOCK 4H-2
OBJECT_ID      = 2025-276AR
CENTER_NAME    = EARTH
REF_FRAME      = TEME
TIME_SYSTEM    = UTC
MEAN_ELEMENT_THEORY = SGP/SGP4

EPOCH          = 2025-12-24T06:25:55.813440
MEAN_MOTION    = 15.18155807
ECCENTRICITY   = .00014194
INCLINATION    = 97.4376
RA_OF_ASC_NODE = 69.8439
ARG_OF_PERICENTER = 154.1923
MEAN_ANOMALY   = 205.9382

EPHEMERIS_TYPE = 0
CLASSIFICATION_TYPE = U
NORAD_CAT_ID   = 66705
ELEMENT_SET_NO = 999
REV_AT_EPOCH   = 387
BSTAR          = .4423614E-3
MEAN_MOTION_DOT = .8972E-4
MEAN_MOTION_DDOT = 0

